"{\n    \"CCSDS_OMM_VERS\": \"2.0\",\n    \"COMMENT\": \"GENERATED VIA SPACE-TRACK.ORG API\",\n    \"CREATION_DATE\": \"2025-08-31T17:37:22\",\n    \"ORIGINATOR\": \"18 SPCS\",\n    \"OBJECT_NAME\": \"BEIDOU 3 IGSO-3\",\n    \"OBJECT_ID\": \"2019-073A\",\n    \"CENTER_NAME\": \"EARTH\",\n    \"REF_FRAME\": \"TEME\",\n    \"TIME_SYSTEM\": \"UTC\",\n    \"MEAN_ELEMENT_THEORY\": \"SGP4\",\n    \"EPOCH\": \"2025-08-30T12:23:32.169984\",\n    \"MEAN_MOTION\": \"1.0027584813\",\n    \"ECCENTRICITY\": \"0.004574003\",\n    \"INCLINATION\": \"55.298136\",\n    \"RA_OF_ASC_NODE\": \"284.03948\",\n    \"ARG_OF_PERICENTER\": \"191.15748\",\n    \"MEAN_ANOMALY\": \"168.83236\",\n    \"EPHEMERIS_TYPE\": \"0\",\n    \"CLASSIFICATION_TYPE\": \"U\",\n    \"NORAD_CAT_ID\": \"44709\",\n    \"ELEMENT_SET_NO\": \"999\",\n    \"REV_AT_EPOCH\": \"2154\",\n    \"BSTAR\": \"0\",\n    \"MEAN_MOTION_DOT\": \"-0.000001524022\",\n    \"MEAN_MOTION_DDOT\": \"0\",\n    \"TLE_LINE0\": \"0 BEIDOU 3 IGSO-3\",\n    \"TLE_LINE1\": \"1 44709U 19073A   25242.51634456 -.00000152  00000-0  00000-0 0  9992\",\n    \"TLE_LINE2\": \"2 44709  55.2981 284.0395 0045740 191.1575 168.8324  1.00275848 21545\",\n    \"SEMIMAJOR_AXIS\": \"42163.593\",\n    \"PERIOD\": \"1436.039\",\n    \"APOAPSIS\": \"35978.314\",\n    \"PERIAPSIS\": \"35592.602\",\n    \"OBJECT_TYPE\": \"PAYLOAD\",\n    \"DECAYED\": \"0\"\n}"